CCSDS_OMM_VERS = 2.0
CREATION_DATE  = 
ORIGINATOR     = 

OBJECT_NAME    = STARLINK-36984
OBJECT_ID      = 2026-050B
CENTER_NAME    = EARTH
REF_FRAME      = TEME
TIME_SYSTEM    = UTC
MEAN_ELEMENT_THEORY = SGP/SGP4

EPOCH          = 2026-03-28T05:04:31.717344
MEAN_MOTION    = 15.80935021
ECCENTRICITY   = .00008924
INCLINATION    = 53.1599
RA_OF_ASC_NODE = 189.0093
ARG_OF_PERICENTER = 51.2029
MEAN_ANOMALY   = 308.9073

EPHEMERIS_TYPE = 0
CLASSIFICATION_TYPE = U
NORAD_CAT_ID   = 68168
ELEMENT_SET_NO = 999
REV_AT_EPOCH   = 340
BSTAR          = .1031225E-2
MEAN_MOTION_DOT = .208413E-2
MEAN_MOTION_DDOT = 0

CCSDS_OMM_VERS = 2.0
CREATION_DATE  = 
ORIGINATOR     = 

OBJECT_NAME    = STARLINK-37077
OBJECT_ID      = 2026-050C
CENTER_NAME    = EARTH
REF_FRAME      = TEME
TIME_SYSTEM    = UTC
MEAN_ELEMENT_THEORY = SGP/SGP4

EPOCH          = 2026-03-28T05:03:27.043488
MEAN_MOTION    = 15.80938179
ECCENTRICITY   = .00014063
INCLINATION    = 53.1599
RA_OF_ASC_NODE = 189.0041
ARG_OF_PERICENTER = 43.7972
MEAN_ANOMALY   = 316.3162

EPHEMERIS_TYPE = 0
CLASSIFICATION_TYPE = U
NORAD_CAT_ID   = 68169
ELEMENT_SET_NO = 999
REV_AT_EPOCH   = 340
BSTAR          = .11885458E-2
MEAN_MOTION_DOT = .241276E-2
MEAN_MOTION_DDOT = 0

CCSDS_OMM_VERS = 2.0
CREATION_DATE  = 
ORIGINATOR     = 

OBJECT_NAME    = STARLINK-37003
OBJECT_ID      = 2026-050D
CENTER_NAME    = EARTH
REF_FRAME      = TEME
TIME_SYSTEM    = UTC
MEAN_ELEMENT_THEORY = SGP/SGP4

EPOCH          = 2026-03-28T06:33:24.270048
MEAN_MOTION    = 15.80972653
ECCENTRICITY   = .0001124
INCLINATION    = 53.1600
RA_OF_ASC_NODE = 188.6822
ARG_OF_PERICENTER = 73.4308
MEAN_ANOMALY   = 286.6838

EPHEMERIS_TYPE = 0
CLASSIFICATION_TYPE = U
NORAD_CAT_ID   = 68170
ELEMENT_SET_NO = 999
REV_AT_EPOCH   = 341
BSTAR          = .10562284E-2
MEAN_MOTION_DOT = .213994E-2
MEAN_MOTION_DDOT = 0

CCSDS_OMM_VERS = 2.0
CREATION_DATE  = 
ORIGINATOR     = 

OBJECT_NAME    = STARLINK-37034
OBJECT_ID      = 2026-050E
CENTER_NAME    = EARTH
REF_FRAME      = TEME
TIME_SYSTEM    = UTC
MEAN_ELEMENT_THEORY = SGP/SGP4

EPOCH          = 2026-03-28T06:32:19.460544
MEAN_MOTION    = 15.80933852
ECCENTRICITY   = .00009674
INCLINATION    = 53.1599
RA_OF_ASC_NODE = 188.6769
ARG_OF_PERICENTER = 61.7241
MEAN_ANOMALY   = 298.3879

EPHEMERIS_TYPE = 0
CLASSIFICATION_TYPE = U
NORAD_CAT_ID   = 68171
ELEMENT_SET_NO = 999
REV_AT_EPOCH   = 341
BSTAR          = .10375026E-2
MEAN_MOTION_DOT = .209706E-2
MEAN_MOTION_DDOT = 0

CCSDS_OMM_VERS = 2.0
CREATION_DATE  = 
ORIGINATOR     = 

OBJECT_NAME    = STARLINK-37031
OBJECT_ID      = 2026-050F
CENTER_NAME    = EARTH
REF_FRAME      = TEME
TIME_SYSTEM    = UTC
MEAN_ELEMENT_THEORY = SGP/SGP4

EPOCH          = 2026-03-28T06:31:14.787552
MEAN_MOTION    = 15.80979064
ECCENTRICITY   = .00010541
INCLINATION    = 53.1597
RA_OF_ASC_NODE = 188.6719
ARG_OF_PERICENTER = 71.6320
MEAN_ANOMALY   = 288.4818

EPHEMERIS_TYPE = 0
CLASSIFICATION_TYPE = U
NORAD_CAT_ID   = 68172
ELEMENT_SET_NO = 999
REV_AT_EPOCH   = 341
BSTAR          = .12133803E-2
MEAN_MOTION_DOT = .246962E-2
MEAN_MOTION_DDOT = 0

CCSDS_OMM_VERS = 2.0
CREATION_DATE  = 
ORIGINATOR     = 

OBJECT_NAME    = STARLINK-37076
OBJECT_ID      = 2026-050G
CENTER_NAME    = EARTH
REF_FRAME      = TEME
TIME_SYSTEM    = UTC
MEAN_ELEMENT_THEORY = SGP/SGP4

EPOCH          = 2026-03-28T06:30:10.015200
MEAN_MOTION    = 15.80972643
ECCENTRICITY   = .00010613
INCLINATION    = 53.1597
RA_OF_ASC_NODE = 188.6669
ARG_OF_PERICENTER = 91.9524
MEAN_ANOMALY   = 268.1620

EPHEMERIS_TYPE = 0
CLASSIFICATION_TYPE = U
NORAD_CAT_ID   = 68173
ELEMENT_SET_NO = 999
REV_AT_EPOCH   = 341
BSTAR          = .11448814E-2
MEAN_MOTION_DOT = .232518E-2
MEAN_MOTION_DDOT = 0

CCSDS_OMM_VERS = 2.0
CREATION_DATE  = 
ORIGINATOR     = 

OBJECT_NAME    = STARLINK-37078
OBJECT_ID      = 2026-050H
CENTER_NAME    = EARTH
REF_FRAME      = TEME
TIME_SYSTEM    = UTC
MEAN_ELEMENT_THEORY = SGP/SGP4

EPOCH          = 2026-03-28T06:29:04.947360
MEAN_MOTION    = 15.80952113
ECCENTRICITY   = .00009471
INCLINATION    = 53.1597
RA_OF_ASC_NODE = 188.6617
ARG_OF_PERICENTER = 97.7784
MEAN_ANOMALY   = 262.3346

EPHEMERIS_TYPE = 0
CLASSIFICATION_TYPE = U
NORAD_CAT_ID   = 68174
ELEMENT_SET_NO = 999
REV_AT_EPOCH   = 341
BSTAR          = .12582865E-2
MEAN_MOTION_DOT = .256084E-2
MEAN_MOTION_DDOT = 0

CCSDS_OMM_VERS = 2.0
CREATION_DATE  = 
ORIGINATOR     = 

OBJECT_NAME    = STARLINK-36886
OBJECT_ID      = 2026-050J
CENTER_NAME    = EARTH
REF_FRAME      = TEME
TIME_SYSTEM    = UTC
MEAN_ELEMENT_THEORY = SGP/SGP4

EPOCH          = 2026-03-28T06:28:00.333984
MEAN_MOTION    = 15.80927826
ECCENTRICITY   = .00009481
INCLINATION    = 53.1596
RA_OF_ASC_NODE = 188.6563
ARG_OF_PERICENTER = 62.5354
MEAN_ANOMALY   = 297.5766

EPHEMERIS_TYPE = 0
CLASSIFICATION_TYPE = U
NORAD_CAT_ID   = 68175
ELEMENT_SET_NO = 999
REV_AT_EPOCH   = 341
BSTAR          = .10806299E-2
MEAN_MOTION_DOT = .21862E-2
MEAN_MOTION_DDOT = 0

CCSDS_OMM_VERS = 2.0
CREATION_DATE  = 
ORIGINATOR     = 

OBJECT_NAME    = STARLINK-36905
OBJECT_ID      = 2026-050K
CENTER_NAME    = EARTH
REF_FRAME      = TEME
TIME_SYSTEM    = UTC
MEAN_ELEMENT_THEORY = SGP/SGP4

EPOCH          = 2026-03-28T06:26:55.407840
MEAN_MOTION    = 15.80989032
ECCENTRICITY   = .00010882
INCLINATION    = 53.1596
RA_OF_ASC_NODE = 188.6520
ARG_OF_PERICENTER = 74.7351
MEAN_ANOMALY   = 285.3792

EPHEMERIS_TYPE = 0
CLASSIFICATION_TYPE = U
NORAD_CAT_ID   = 68176
ELEMENT_SET_NO = 999
REV_AT_EPOCH   = 341
BSTAR          = .11998692E-2
MEAN_MOTION_DOT = .244239E-2
MEAN_MOTION_DDOT = 0

CCSDS_OMM_VERS = 2.0
CREATION_DATE  = 
ORIGINATOR     = 

OBJECT_NAME    = STARLINK-36668
OBJECT_ID      = 2026-050L
CENTER_NAME    = EARTH
REF_FRAME      = TEME
TIME_SYSTEM    = UTC
MEAN_ELEMENT_THEORY = SGP/SGP4

EPOCH          = 2026-03-28T06:25:50.575872
MEAN_MOTION    = 15.80989110
ECCENTRICITY   = .00009228
INCLINATION    = 53.1596
RA_OF_ASC_NODE = 188.6464
ARG_OF_PERICENTER = 21.8644
MEAN_ANOMALY   = 338.2418

EPHEMERIS_TYPE = 0
CLASSIFICATION_TYPE = U
NORAD_CAT_ID   = 68177
ELEMENT_SET_NO = 999
REV_AT_EPOCH   = 341
BSTAR          = .12212973E-2
MEAN_MOTION_DOT = .248746E-2
MEAN_MOTION_DDOT = 0

CCSDS_OMM_VERS = 2.0
CREATION_DATE  = 
ORIGINATOR     = 

OBJECT_NAME    = STARLINK-36677
OBJECT_ID      = 2026-050M
CENTER_NAME    = EARTH
REF_FRAME      = TEME
TIME_SYSTEM    = UTC
MEAN_ELEMENT_THEORY = SGP/SGP4

EPOCH          = 2026-03-28T06:24:45.753408
MEAN_MOTION    = 15.80988084
ECCENTRICITY   = .00007702
INCLINATION    = 53.1596
RA_OF_ASC_NODE = 188.6407
ARG_OF_PERICENTER = 55.9884
MEAN_ANOMALY   = 304.1212

EPHEMERIS_TYPE = 0
CLASSIFICATION_TYPE = U
NORAD_CAT_ID   = 68178
ELEMENT_SET_NO = 999
REV_AT_EPOCH   = 341
BSTAR          = .11736072E-2
MEAN_MOTION_DOT = .238715E-2
MEAN_MOTION_DDOT = 0

CCSDS_OMM_VERS = 2.0
CREATION_DATE  = 
ORIGINATOR     = 

OBJECT_NAME    = STARLINK-37052
OBJECT_ID      = 2026-050N
CENTER_NAME    = EARTH
REF_FRAME      = TEME
TIME_SYSTEM    = UTC
MEAN_ELEMENT_THEORY = SGP/SGP4

EPOCH          = 2026-03-28T06:23:40.972416
MEAN_MOTION    = 15.80992997
ECCENTRICITY   = .00009849
INCLINATION    = 53.1592
RA_OF_ASC_NODE = 188.6365
ARG_OF_PERICENTER = 89.2795
MEAN_ANOMALY   = 270.8341

EPHEMERIS_TYPE = 0
CLASSIFICATION_TYPE = U
NORAD_CAT_ID   = 68179
ELEMENT_SET_NO = 999
REV_AT_EPOCH   = 341
BSTAR          = .13667812E-2
MEAN_MOTION_DOT = .279517E-2
MEAN_MOTION_DDOT = 0

